OBJECT_NAME,OBJECT_ID,EPOCH,MEAN_MOTION,ECCENTRICITY,INCLINATION,RA_OF_ASC_NODE,ARG_OF_PERICENTER,MEAN_ANOMALY,EPHEMERIS_TYPE,CLASSIFICATION_TYPE,NORAD_CAT_ID,ELEMENT_SET_NO,REV_AT_EPOCH,BSTAR,MEAN_MOTION_DOT,MEAN_MOTION_DDOT,sigma_x,sigma_y,sigma_z
STARLINK-30900,2023-180X,2025-07-31T21:46:23.380320,15.02535871,0.0001074,43.0017,175.6529,287.0002,73.0723,0,U,58423,999,9428,1.44e-05,-9e-08,0.0,0.5,0.5,0.5
STARLINK-30908,2023-180Y,2025-07-31T21:20:29.421024,15.02481216,0.000215,43.0076,174.6245,288.1347,71.9261,0,U,58424,999,9438,0.0006743,8.903e-05,0.0,0.5,0.5,0.5
STARLINK-30869,2023-183A,2025-07-31T22:05:59.630784,15.02535493,9.95e-05,43.0024,163.0272,273.1369,86.9359,0,U,58437,999,9350,3.2392e-05,2.34e-06,0.0,0.5,0.5,0.5
STARLINK-30969,2023-183B,2025-08-01T04:33:42.134400,15.02535643,8.38e-05,43.0017,161.6078,279.3723,80.7025,0,U,58438,999,9356,4.2935e-05,3.77e-06,0.0,0.5,0.5,0.5
STARLINK-30951,2023-183C,2025-07-31T23:36:55.354464,15.02529913,0.0001059,43.0013,162.641,274.9052,85.1669,0,U,58439,999,9353,0.00014107,1.702e-05,0.0,0.5,0.5,0.5
STARLINK-30950,2023-183D,2025-07-31T18:03:08.275104,15.27574646,9.59e-05,43.0014,12.8653,280.849,79.2253,0,U,58440,999,9524,9.279e-06,-7e-08,0.0,0.5,0.5,0.5
STARLINK-30942,2023-183E,2025-07-31T21:37:13.731168,15.02533212,7.59e-05,43.0021,162.8792,273.7629,86.3126,0,U,58441,999,9352,5.9382e-05,5.99e-06,0.0,0.5,0.5,0.5
STARLINK-30959,2023-183F,2025-07-31T21:27:38.313216,15.02535222,7.26e-05,43.0021,162.8297,275.1415,84.9345,0,U,58442,999,9350,6.9554e-06,-1.09e-06,0.0,0.5,0.5,0.5
STARLINK-30971,2023-183G,2025-07-31T23:17:44.846016,15.02536353,7.19e-05,43.001,162.5362,268.7086,91.3674,0,U,58443,999,9353,3.2923e-05,2.41e-06,0.0,0.5,0.5,0.5
STARLINK-30963,2023-183H,2025-07-31T21:22:50.454336,15.02535099,9.56e-05,43.0023,162.7966,267.7164,92.3568,0,U,58444,999,9350,2.9235e-05,1.91e-06,0.0,0.5,0.5,0.5
STARLINK-30961,2023-183J,2025-07-31T22:00:01.999584,15.02539675,9.82e-05,43.0013,162.6169,259.7395,258.2208,0,U,58445,999,584,-0.0002624,-3.747e-05,0.0,0.5,0.5,0.5
STARLINK-30975,2023-183K,2025-08-01T04:49:41.073312,15.02534258,0.0001164,43.0015,161.6753,289.0159,71.0557,0,U,58446,999,9356,1.55e-05,6e-08,0.0,0.5,0.5,0.5
STARLINK-30976,2023-183L,2025-07-31T21:03:40.229280,15.02533952,7.78e-05,43.0024,162.7334,305.5803,54.4967,0,U,58447,999,9350,2.9871e-05,2e-06,0.0,0.5,0.5,0.5
STARLINK-30926,2023-183M,2025-07-31T20:58:53.149728,15.02531144,0.0001201,43.0022,162.6367,289.8374,70.2338,0,U,58448,999,9350,-7.5666e-06,-3.06e-06,0.0,0.5,0.5,0.5
STARLINK-30943,2023-183N,2025-07-31T05:02:29.556384,15.02535737,9.4e-05,43.0022,141.1081,262.9719,97.1016,0,U,58449,999,9370,2.5973e-06,-1.68e-06,0.0,0.5,0.5,0.5
STARLINK-30946,2023-183P,2025-08-01T04:38:30.058944,15.02536936,0.0001012,43.0019,161.633,273.5107,86.5619,0,U,58450,999,9357,4.1454e-05,3.56e-06,0.0,0.5,0.5,0.5
STARLINK-30944,2023-183Q,2025-07-31T21:13:15.159936,15.02526814,0.0001529,43.0026,162.7508,266.9244,93.1423,0,U,58451,999,9347,-0.00010153,-1.575e-05,0.0,0.5,0.5,0.5
STARLINK-30928,2023-183R,2025-07-31T21:08:27.664800,15.02533073,9.65e-05,43.0022,162.7275,266.4458,93.6274,0,U,58452,999,9350,1.3058e-05,-2.7e-07,0.0,0.5,0.5,0.5
STARLINK-30957,2023-183S,2025-07-31T14:26:32.064000,15.02534849,7.23e-05,43.001,164.9284,282.32,77.7562,0,U,58453,999,9345,3.2838e-05,2.4e-06,0.0,0.5,0.5,0.5
STARLINK-30966,2023-183T,2025-07-31T23:56:06.515232,15.02532018,8.95e-05,43.0021,162.7359,275.3301,84.7439,0,U,58454,999,9353,0.00010943,1.275e-05,0.0,0.5,0.5,0.5
STARLINK-30935,2023-183U,2025-07-31T21:51:36.339264,15.02536166,9.32e-05,43.002,162.9465,272.161,87.9125,0,U,58455,999,9350,4.5729e-05,4.14e-06,0.0,0.5,0.5,0.5
STARLINK-30960,2023-183V,2025-08-01T03:58:48.068832,15.27585564,0.0001529,43.0014,126.5781,260.5669,99.501,0,U,58456,999,9397,0.00026251,6.97e-05,0.0,0.5,0.5,0.5
STARLINK-30958,2023-183W,2025-07-31T21:29:14.093664,15.02536202,8.43e-05,43.0016,162.8357,270.1408,89.9338,0,U,58457,999,9340,1.5877e-05,1.1e-07,0.0,0.5,0.5,0.5
STARLINK-30962,2023-183X,2025-07-31T08:08:14.880768,15.02534636,0.0001112,43.0023,165.5447,267.9431,92.1284,0,U,58458,999,9342,-6.4554e-06,-2.91e-06,0.0,0.5,0.5,0.5
STARLINK-30977,2023-183Y,2025-07-31T21:46:49.207008,15.02531869,7.33e-05,43.002,162.9232,259.8823,100.1937,0,U,58459,999,9350,2.8772e-05,1.85e-06,0.0,0.5,0.5,0.5
STARLINK-30947,2023-186A,2025-08-01T00:31:33.312576,15.02514251,0.0001386,43.003,186.8197,290.6144,69.455,0,U,58473,999,9260,-0.00019102,-2.781e-05,0.0,0.5,0.5,0.5
STARLINK-30995,2023-186B,2025-08-01T00:32:20.596704,15.27592198,0.000119,43.0042,55.5224,264.7844,95.2872,0,U,58474,999,9414,0.00012839,3.274e-05,0.0,0.5,0.5,0.5
STARLINK-30941,2023-186C,2025-07-31T22:46:12.841536,15.02531826,0.000112,43.0029,187.1293,283.0064,77.0653,0,U,58475,999,9264,8.7337e-05,9.76e-06,0.0,0.5,0.5,0.5
STARLINK-30980,2023-186D,2025-08-01T00:17:08.792448,15.02535065,0.0001252,43.0022,186.7428,289.2026,70.868,0,U,58476,999,9260,4.7225e-06,-1.4e-06,0.0,0.5,0.5,0.5
