STARLINK-30900          
1 58423U 23180X   25212.90721505 -.00000009  00000+0  14400-4 0  9999
2 58423  43.0017 175.6529 0001074 287.0002  73.0723 15.02535871 94287
STARLINK-30908          
1 58424U 23180Y   25212.88922941  .00008903  00000+0  67430-3 0  9994
2 58424  43.0076 174.6245 0002150 288.1347  71.9261 15.02481216 94385
STARLINK-30869          
1 58437U 23183A   25212.92082906  .00000234  00000+0  32392-4 0  9993
2 58437  43.0024 163.0272 0000995 273.1369  86.9359 15.02535493 93501
STARLINK-30969          
1 58438U 23183B   25213.19007100  .00000377  00000+0  42935-4 0  9999
2 58438  43.0017 161.6078 0000838 279.3723  80.7025 15.02535643 93565
STARLINK-30951          
1 58439U 23183C   25212.98397401  .00001702  00000+0  14107-3 0  9994
2 58439  43.0013 162.6410 0001059 274.9052  85.1669 15.02529913 93538
STARLINK-30950          
1 58440U 23183D   25212.75217911 -.00000007  00000+0  92790-5 0  9992
2 58440  43.0014  12.8653 0000959 280.8490  79.2253 15.27574646 95249
STARLINK-30942          
1 58441U 23183E   25212.90085337  .00000599  00000+0  59382-4 0  9999
2 58441  43.0021 162.8792 0000759 273.7629  86.3126 15.02533212 93525
STARLINK-30959          
1 58442U 23183F   25212.89419344 -.00000109  00000+0  69554-5 0  9998
2 58442  43.0021 162.8297 0000726 275.1415  84.9345 15.02535222 93507
STARLINK-30971          
1 58443U 23183G   25212.97065794  .00000241  00000+0  32923-4 0  9999
2 58443  43.0010 162.5362 0000719 268.7086  91.3674 15.02536353 93536
STARLINK-30963          
1 58444U 23183H   25212.89086174  .00000191  00000+0  29235-4 0  9992
2 58444  43.0023 162.7966 0000956 267.7164  92.3568 15.02535099 93508
STARLINK-30961          
1 58445U 23183J   25212.91668981 -.00003747  00000+0 -26240-3 0  9992
2 58445  43.0013 162.6169 0000982 259.7395 258.2208 15.02539675  5846
STARLINK-30975          
1 58446U 23183K   25213.20116983  .00000006  00000+0  15500-4 0  9997
2 58446  43.0015 161.6753 0001164 289.0159  71.0557 15.02534258 93560
STARLINK-30976          
1 58447U 23183L   25212.87754895  .00000200  00000+0  29871-4 0  9992
2 58447  43.0024 162.7334 0000778 305.5803  54.4967 15.02533952 93502
STARLINK-30926          
1 58448U 23183M   25212.87422627 -.00000306  00000+0 -75666-5 0  9991
2 58448  43.0022 162.6367 0001201 289.8374  70.2338 15.02531144 93504
STARLINK-30943          
1 58449U 23183N   25212.21006431 -.00000168  00000+0  25973-5 0  9992
2 58449  43.0022 141.1081 0000940 262.9719  97.1016 15.02535737 93709
STARLINK-30946          
1 58450U 23183P   25213.19340346  .00000356  00000+0  41454-4 0  9997
2 58450  43.0019 161.6330 0001012 273.5107  86.5619 15.02536936 93579
STARLINK-30944          
1 58451U 23183Q   25212.88420324 -.00001575  00000+0 -10153-3 0  9995
2 58451  43.0026 162.7508 0001529 266.9244  93.1423 15.02526814 93478
STARLINK-30928          
1 58452U 23183R   25212.88087575 -.00000027  00000+0  13058-4 0  9991
2 58452  43.0022 162.7275 0000965 266.4458  93.6274 15.02533073 93509
STARLINK-30957          
1 58453U 23183S   25212.60176000  .00000240  00000+0  32838-4 0  9997
2 58453  43.0010 164.9284 0000723 282.3200  77.7562 15.02534849 93454
STARLINK-30966          
1 58454U 23183T   25212.99729763  .00001275  00000+0  10943-3 0  9991
2 58454  43.0021 162.7359 0000895 275.3301  84.7439 15.02532018 93536
STARLINK-30935          
1 58455U 23183U   25212.91083726  .00000414  00000+0  45729-4 0  9991
2 58455  43.0020 162.9465 0000932 272.1610  87.9125 15.02536166 93508
STARLINK-30960          
1 58456U 23183V   25213.16583413  .00006970  00000+0  26251-3 0  9999
2 58456  43.0014 126.5781 0001529 260.5669  99.5010 15.27585564 93973
STARLINK-30958          
1 58457U 23183W   25212.89530201  .00000011  00000+0  15877-4 0  9999
2 58457  43.0016 162.8357 0000843 270.1408  89.9338 15.02536202 93406
STARLINK-30962          
1 58458U 23183X   25212.33906112 -.00000291  00000+0 -64554-5 0  9996
2 58458  43.0023 165.5447 0001112 267.9431  92.1284 15.02534636 93422
STARLINK-30977          
1 58459U 23183Y   25212.90751397  .00000185  00000+0  28772-4 0  9994
2 58459  43.0020 162.9232 0000733 259.8823 100.1937 15.02531869 93505
STARLINK-30947          
1 58473U 23186A   25213.02191334 -.00002781  00000+0 -19102-3 0  9998
2 58473  43.0030 186.8197 0001386 290.6144  69.4550 15.02514251 92605
STARLINK-30995          
1 58474U 23186B   25213.02246061  .00003274  00000+0  12839-3 0  9993
2 58474  43.0042  55.5224 0001190 264.7844  95.2872 15.27592198 94142
STARLINK-30941          
1 58475U 23186C   25212.94875974  .00000976  00000+0  87337-4 0  9997
2 58475  43.0029 187.1293 0001120 283.0064  77.0653 15.02531826 92649
STARLINK-30980          
1 58476U 23186D   25213.01190732 -.00000140  00000+0  47225-5 0  9996
2 58476  43.0022 186.7428 0001252 289.2026  70.8680 15.02535065 92606
